{
  "links" : {
    "next" : "https://api.nasa.gov/neo/rest/v1/feed?start_date=2005-02-16&end_date=2005-02-16&detailed=true&api_key=t0TVs3DtDT2H8Oy2Zy8m2eVrNsAVKAexjcZXUckd",
    "prev" : "https://api.nasa.gov/neo/rest/v1/feed?start_date=2005-02-14&end_date=2005-02-14&detailed=true&api_key=t0TVs3DtDT2H8Oy2Zy8m2eVrNsAVKAexjcZXUckd",
    "self" : "https://api.nasa.gov/neo/rest/v1/feed?start_date=2005-02-15&end_date=2005-02-15&detailed=true&api_key=t0TVs3DtDT2H8Oy2Zy8m2eVrNsAVKAexjcZXUckd"
  },
  "element_count" : 7,
  "near_earth_objects" : {
    "2005-02-15" : [ {
      "links" : {
        "self" : "https://api.nasa.gov/neo/rest/v1/neo/3742340?api_key=t0TVs3DtDT2H8Oy2Zy8m2eVrNsAVKAexjcZXUckd"
      },
      "neo_reference_id" : "3742340",
      "name" : "(2016 CJ136)",
      "nasa_jpl_url" : "http://ssd.jpl.nasa.gov/sbdb.cgi?sstr=3742340",
      "absolute_magnitude_h" : 21.6,
      "estimated_diameter" : {
        "kilometers" : {
          "estimated_diameter_min" : 0.1272198785,
          "estimated_diameter_max" : 0.2844722965
        },
        "meters" : {
          "estimated_diameter_min" : 127.2198785394,
          "estimated_diameter_max" : 284.4722965033
        },
        "miles" : {
          "estimated_diameter_min" : 0.0790507431,
          "estimated_diameter_max" : 0.1767628354
        },
        "feet" : {
          "estimated_diameter_min" : 417.3880663071,
          "estimated_diameter_max" : 933.3080892598
        }
      },
      "is_potentially_hazardous_asteroid" : false,
      "close_approach_data" : [ {
        "close_approach_date" : "2005-02-15",
        "epoch_date_close_approach" : 1108454400000,
        "relative_velocity" : {
          "kilometers_per_second" : "15.9090064597",
          "kilometers_per_hour" : "57272.4232548372",
          "miles_per_hour" : "35586.8565496515"
        },
        "miss_distance" : {
          "astronomical" : "0.3668972534",
          "lunar" : "142.7230377197",
          "kilometers" : "54887048",
          "miles" : "34105232"
        },
        "orbiting_body" : "Earth"
      } ],
      "orbital_data" : {
        "orbit_id" : "9",
        "orbit_determination_date" : "2017-04-06 08:28:30",
        "orbit_uncertainty" : "3",
        "minimum_orbit_intersection" : ".334879",
        "jupiter_tisserand_invariant" : "5.611",
        "epoch_osculation" : "2458000.5",
        "eccentricity" : ".3794037751586797",
        "semi_major_axis" : "1.066915003114141",
        "inclination" : "28.89741196620628",
        "ascending_node_longitude" : "127.2412920293152",
        "orbital_period" : "402.5252795534224",
        "perihelion_distance" : ".6621234231592017",
        "perihelion_argument" : "160.9155530730892",
        "aphelion_distance" : "1.471706583069081",
        "perihelion_time" : "2457965.658648468590",
        "mean_anomaly" : "31.1604939824478",
        "mean_motion" : ".8943537667979471",
        "equinox" : "J2000"
      }
    } ]
  }
}